[{"street_address":"5204 Park Meadow Lane","city":"Nashville","state":"Tennessee","zip_code":"37220"},
{"street_address":"4 Pearson Parkway","city":"Modesto","state":"California","zip_code":"95354"},
{"street_address":"9627 Anhalt Circle","city":"Delray Beach","state":"Florida","zip_code":"33448"},
{"street_address":"0379 Anderson Park","city":"Columbia","state":"South Carolina","zip_code":"29240"},
{"street_address":"0 Comanche Point","city":"Washington","state":"District of Columbia","zip_code":"20420"},
{"street_address":"529 Vahlen Junction","city":"Louisville","state":"Kentucky","zip_code":"40220"},
{"street_address":"78 Browning Place","city":"Charlotte","state":"North Carolina","zip_code":"28210"},
{"street_address":"510 Hanover Lane","city":"Jamaica","state":"New York","zip_code":"11480"},
{"street_address":"965 Mallory Street","city":"Spokane","state":"Washington","zip_code":"99210"},
{"street_address":"48700 Vidon Point","city":"Saint Paul","state":"Minnesota","zip_code":"55108"},
{"street_address":"1 Center Alley","city":"Mobile","state":"Alabama","zip_code":"36622"},
{"street_address":"8 Farragut Alley","city":"Herndon","state":"Virginia","zip_code":"22070"},
{"street_address":"17 Union Drive","city":"Dallas","state":"Texas","zip_code":"75246"},
{"street_address":"8 Prentice Street","city":"Lake Charles","state":"Louisiana","zip_code":"70607"},
{"street_address":"004 Scofield Terrace","city":"Washington","state":"District of Columbia","zip_code":"20268"},
{"street_address":"88478 Manufacturers Pass","city":"Pasadena","state":"California","zip_code":"91199"},
{"street_address":"270 Fairview Drive","city":"Hollywood","state":"Florida","zip_code":"33028"},
{"street_address":"21596 Annamark Place","city":"Glendale","state":"California","zip_code":"91210"},
{"street_address":"668 Sommers Circle","city":"Wilmington","state":"Delaware","zip_code":"19892"},
{"street_address":"96917 Emmet Junction","city":"Grand Rapids","state":"Michigan","zip_code":"49505"},
{"street_address":"67 Tennessee Trail","city":"Saint Paul","state":"Minnesota","zip_code":"55108"},
{"street_address":"817 Wayridge Terrace","city":"Merrifield","state":"Virginia","zip_code":"22119"},
{"street_address":"2 High Crossing Trail","city":"Aurora","state":"Colorado","zip_code":"80045"},
{"street_address":"116 Chive Crossing","city":"Milwaukee","state":"Wisconsin","zip_code":"53277"},
{"street_address":"750 Cambridge Plaza","city":"Santa Barbara","state":"California","zip_code":"93111"},
{"street_address":"87 Gina Plaza","city":"San Luis Obispo","state":"California","zip_code":"93407"},
{"street_address":"0 Menomonie Center","city":"Columbia","state":"South Carolina","zip_code":"29215"},
{"street_address":"782 Jana Plaza","city":"Manassas","state":"Virginia","zip_code":"22111"},
{"street_address":"24 Chive Terrace","city":"Omaha","state":"Nebraska","zip_code":"68144"},
{"street_address":"8262 Oak Avenue","city":"Oklahoma City","state":"Oklahoma","zip_code":"73109"}]
